[{"OBJECT_NAME":"STARLINK-2329","OBJECT_ID":"2021-021P","EPOCH":"2026-03-09T17:20:52.132704","MEAN_MOTION":15.3017618,"ECCENTRICITY":0.00011565,"INCLINATION":53.1598,"RA_OF_ASC_NODE":255.3078,"ARG_OF_PERICENTER":80.1333,"MEAN_ANOMALY":279.9798,"EPHEMERIS_TYPE":0,"CLASSIFICATION_TYPE":"U","NORAD_CAT_ID":47873,"ELEMENT_SET_NO":999,"REV_AT_EPOCH":27642,"BSTAR":-0.00010686119,"MEAN_MOTION_DOT":-3.52e-5,"MEAN_MOTION_DDOT":0},{"OBJECT_NAME":"YAOGAN-43 01F","OBJECT_ID":"2024-148F","EPOCH":"2026-03-10T00:23:08.877408","MEAN_MOTION":15.29824616,"ECCENTRICITY":0.00057048,"INCLINATION":34.9925,"RA_OF_ASC_NODE":59.8891,"ARG_OF_PERICENTER":18.4862,"MEAN_ANOMALY":341.6062,"EPHEMERIS_TYPE":0,"CLASSIFICATION_TYPE":"U","NORAD_CAT_ID":60463,"ELEMENT_SET_NO":999,"REV_AT_EPOCH":8707,"BSTAR":0.00058388219,"MEAN_MOTION_DOT":0.00017308,"MEAN_MOTION_DDOT":0}]
